{
  "type": "FeatureCollection",
  "features": [
    {
      "type": "Feature",
      "properties": {
        "norad_id": 67077,
        "name": "STARLINK-36243",
        "group": "last-30-days",
        "lat": 10.636667169546602,
        "lon": -147.11629514275972,
        "alt_km": 350.16663341160347,
        "timestamp": "2025-12-27T03:58:42.934807+00:00",
        "meta_object_name": "STARLINK-36243",
        "meta_object_id": "2025-298C",
        "meta_epoch": "2025-12-26T20:00:01.999008",
        "meta_mean_motion": 15.74790541,
        "meta_eccentricity": 0.0003687,
        "meta_inclination": 69.9983,
        "meta_ra_of_asc_node": 209.9009,
        "meta_arg_of_pericenter": 271.4924,
        "meta_mean_anomaly": 16.6898,
        "meta_ephemeris_type": 0,
        "meta_classification_type": "U",
        "meta_norad_cat_id": 67077,
        "meta_element_set_no": 999,
        "meta_rev_at_epoch": 324,
        "meta_bstar": -0.01328,
        "meta_mean_motion_dot": -0.017322,
        "meta_mean_motion_ddot": 0,
        "tle_line1": "1 67077U 25298C   25360.83335647 -.01732200  00000+0 -13280-1 0  9999",
        "tle_line2": "2 67077  69.9983 209.9009 0003687 271.4924  16.6898 15.74790541  3245"
      },
      "geometry": {
        "type": "Point",
        "coordinates": [
          -147.11629514275972,
          10.636667169546602
        ]
      }
    },
    {
      "type": "Feature",
      "properties": {
        "norad_id": 67078,
        "name": "STARLINK-36236",
        "group": "last-30-days",
        "lat": 12.357215245196281,
        "lon": -146.46383219857486,
        "alt_km": 349.98381292405065,
        "timestamp": "2025-12-27T03:58:42.934816+00:00",
        "meta_object_name": "STARLINK-36236",
        "meta_object_id": "2025-298D",
        "meta_epoch": "2025-12-26T20:00:01.999008",
        "meta_mean_motion": 15.74795619,
        "meta_eccentricity": 0.0003793,
        "meta_inclination": 69.9986,
        "meta_ra_of_asc_node": 209.8989,
        "meta_arg_of_pericenter": 271.5457,
        "meta_mean_anomaly": 18.465,
        "meta_ephemeris_type": 0,
        "meta_classification_type": "U",
        "meta_norad_cat_id": 67078,
        "meta_element_set_no": 999,
        "meta_rev_at_epoch": 324,
        "meta_bstar": -0.013286,
        "meta_mean_motion_dot": -0.01733375,
        "meta_mean_motion_ddot": 0,
        "tle_line1": "1 67078U 25298D   25360.83335647 -.01733375  00000+0 -13286-1 0  9990",
        "tle_line2": "2 67078  69.9986 209.8989 0003793 271.5457  18.4650 15.74795619  3242"
      },
      "geometry": {
        "type": "Point",
        "coordinates": [
          -146.46383219857486,
          12.357215245196281
        ]
      }
    },
    {
      "type": "Feature",
      "properties": {
        "norad_id": 67079,
        "name": "STARLINK-36159",
        "group": "last-30-days",
        "lat": 14.376550109266988,
        "lon": -145.68508021039028,
        "alt_km": 349.826543281456,
        "timestamp": "2025-12-27T03:58:42.934827+00:00",
        "meta_object_name": "STARLINK-36159",
        "meta_object_id": "2025-298E",
        "meta_epoch": "2025-12-26T20:00:01.999008",
        "meta_mean_motion": 15.74809121,
        "meta_eccentricity": 0.0003738,
        "meta_inclination": 69.999,
        "meta_ra_of_asc_node": 209.8976,
        "meta_arg_of_pericenter": 272.0256,
        "meta_mean_anomaly": 20.1547,
        "meta_ephemeris_type": 0,
        "meta_classification_type": "U",
        "meta_norad_cat_id": 67079,
        "meta_element_set_no": 999,
        "meta_rev_at_epoch": 324,
        "meta_bstar": -0.013792,
        "meta_mean_motion_dot": -0.01792205,
        "meta_mean_motion_ddot": 0,
        "tle_line1": "1 67079U 25298E   25360.83335647 -.01792205  00000+0 -13792-1 0  9990",
        "tle_line2": "2 67079  69.9990 209.8976 0003738 272.0256  20.1547 15.74809121  3245"
      },
      "geometry": {
        "type": "Point",
        "coordinates": [
          -145.68508021039028,
          14.376550109266988
        ]
      }
    },
    {
      "type": "Feature",
      "properties": {
        "norad_id": 67080,
        "name": "STARLINK-36158",
        "group": "last-30-days",
        "lat": 16.32537704722395,
        "lon": -144.9218075095157,
        "alt_km": 349.6394272866264,
        "timestamp": "2025-12-27T03:58:42.934836+00:00",
        "meta_object_name": "STARLINK-36158",
        "meta_object_id": "2025-298F",
        "meta_epoch": "2025-12-26T20:00:01.999008",
        "meta_mean_motion": 15.74774017,
        "meta_eccentricity": 0.0003805,
        "meta_inclination": 69.9985,
        "meta_ra_of_asc_node": 209.8934,
        "meta_arg_of_pericenter": 270.93,
        "meta_mean_anomaly": 23.3458,
        "meta_ephemeris_type": 0,
        "meta_classification_type": "U",
        "meta_norad_cat_id": 67080,
        "meta_element_set_no": 999,
        "meta_rev_at_epoch": 318,
        "meta_bstar": -0.013295,
        "meta_mean_motion_dot": -0.01733009,
        "meta_mean_motion_ddot": 0,
        "tle_line1": "1 67080U 25298F   25360.83335647 -.01733009  00000+0 -13295-1 0  9997",
        "tle_line2": "2 67080  69.9985 209.8934 0003805 270.9300  23.3458 15.74774017  3181"
      },
      "geometry": {
        "type": "Point",
        "coordinates": [
          -144.9218075095157,
          16.32537704722395
        ]
      }
    },
    {
      "type": "Feature",
      "properties": {
        "norad_id": 67081,
        "name": "STARLINK-35864",
        "group": "last-30-days",
        "lat": 18.14537604096034,
        "lon": -144.19233139361606,
        "alt_km": 349.40440752020095,
        "timestamp": "2025-12-27T03:58:42.934845+00:00",
        "meta_object_name": "STARLINK-35864",
        "meta_object_id": "2025-298G",
        "meta_epoch": "2025-12-26T20:00:01.999008",
        "meta_mean_motion": 15.74774063,
        "meta_eccentricity": 0.000369,
        "meta_inclination": 69.999,
        "meta_ra_of_asc_node": 209.8915,
        "meta_arg_of_pericenter": 271.0198,
        "meta_mean_anomaly": 25.2057,
        "meta_ephemeris_type": 0,
        "meta_classification_type": "U",
        "meta_norad_cat_id": 67081,
        "meta_element_set_no": 999,
        "meta_rev_at_epoch": 324,
        "meta_bstar": -0.013299,
        "meta_mean_motion_dot": -0.01733302,
        "meta_mean_motion_ddot": 0,
        "tle_line1": "1 67081U 25298G   25360.83335647 -.01733302  00000+0 -13299-1 0  9998",
        "tle_line2": "2 67081  69.9990 209.8915 0003690 271.0198  25.2057 15.74774063  3240"
      },
      "geometry": {
        "type": "Point",
        "coordinates": [
          -144.19233139361606,
          18.14537604096034
        ]
      }
    },
    {
      "type": "Feature",
      "properties": {
        "norad_id": 67082,
        "name": "STARLINK-36035",
        "group": "last-30-days",
        "lat": 20.03459130732389,
        "lon": -143.4174745505456,
        "alt_km": 349.13510970082734,
        "timestamp": "2025-12-27T03:58:42.934855+00:00",
        "meta_object_name": "STARLINK-36035",
        "meta_object_id": "2025-298H",
        "meta_epoch": "2025-12-26T20:00:01.999008",
        "meta_mean_motion": 15.74765887,
        "meta_eccentricity": 0.0003704,
        "meta_inclination": 69.9991,
        "meta_ra_of_asc_node": 209.8895,
        "meta_arg_of_pericenter": 272.6418,
        "meta_mean_anomaly": 25.6169,
        "meta_ephemeris_type": 0,
        "meta_classification_type": "U",
        "meta_norad_cat_id": 67082,
        "meta_element_set_no": 999,
        "meta_rev_at_epoch": 324,
        "meta_bstar": -0.013277,
        "meta_mean_motion_dot": -0.01730275,
        "meta_mean_motion_ddot": 0,
        "tle_line1": "1 67082U 25298H   25360.83335647 -.01730275  00000+0 -13277-1 0  9991",
        "tle_line2": "2 67082  69.9991 209.8895 0003704 272.6418  25.6169 15.74765887  3249"
      },
      "geometry": {
        "type": "Point",
        "coordinates": [
          -143.4174745505456,
          20.03459130732389
        ]
      }
    },
    {
      "type": "Feature",
      "properties": {
        "norad_id": 67083,
        "name": "STARLINK-36170",
        "group": "last-30-days",
        "lat": 21.950760128610327,
        "lon": -142.6114828882176,
        "alt_km": 349.01435559721085,
        "timestamp": "2025-12-27T03:58:42.934864+00:00",
        "meta_object_name": "STARLINK-36170",
        "meta_object_id": "2025-298J",
        "meta_epoch": "2025-12-26T20:00:01.999008",
        "meta_mean_motion": 15.74763781,
        "meta_eccentricity": 0.0003724,
        "meta_inclination": 69.9989,
        "meta_ra_of_asc_node": 209.8866,
        "meta_arg_of_pericenter": 270.9102,
        "meta_mean_anomaly": 29.4143,
        "meta_ephemeris_type": 0,
        "meta_classification_type": "U",
        "meta_norad_cat_id": 67083,
        "meta_element_set_no": 999,
        "meta_rev_at_epoch": 324,
        "meta_bstar": -0.013364,
        "meta_mean_motion_dot": -0.01740136,
        "meta_mean_motion_ddot": 0,
        "tle_line1": "1 67083U 25298J   25360.83335647 -.01740136  00000+0 -13364-1 0  9996",
        "tle_line2": "2 67083  69.9989 209.8866 0003724 270.9102  29.4143 15.74763781  3243"
      },
      "geometry": {
        "type": "Point",
        "coordinates": [
          -142.6114828882176,
          21.950760128610327
        ]
      }
    }
  ]
}